{"type": "FeatureCollection", "name": "U.S. Maritime Boundaries - West Coast Context Layers", "features": [{"type": "Feature", "properties": {"Layer": "State Waters Outer Limit (3 NM Territorial Sea)", "Source": "https://nauticalcharts.noaa.gov/data/us-maritime-limits-and-boundaries.html", "Source feature count": 7, "Selection rule": "REGION=Pacific Coast and TS=1", "Caveat": "NOAA territorial-sea line used as a general state-waters outer-boundary context layer; consult jurisdiction-specific authorities for legal determinations."}, "geometry": {"type": "MultiLineString", "coordinates": [[[-117.183631488, 32.53079535799998], [-117.239059, 32.52749799700001], [-117.26330207500001, 32.55339964199999], [-117.46446354300002, 32.589502751]], [[-117.124667999, 32.53427599999998], [-117.183631488, 32.53079535799998]], [[-124.57164463499998, 41.97381727200002], [-124.63717901899997, 41.88164067399998], [-124.63051458400003, 41.774654683999984], [-124.54160065399998, 41.670353130000024], [-124.401511819, 41.59262117700001], [-124.36096396300002, 41.48615342800002], [-124.41926898100002, 41.42508578500002], [-124.44351251199998, 41.350936796999974], [-124.43685077999999, 41.29546453400002], [-124.40916797300002, 41.24213813199998], [-124.44457265099999, 41.176222756000016], [-124.449708268, 41.09140077799998], [-124.399028085, 40.964224307999984], [-124.481134414, 40.852406452000025], [-124.59973705200002, 40.64363979199999], [-124.71105917300002, 40.52661190399999], [-124.73147233600002, 40.455352342000026], [-124.71555649599998, 40.37995071300003], [-124.62817868000002, 40.28944640399999], [-124.62261205200002, 40.20415185899998], [-124.57922469099998, 40.131618479999986], [-124.32587041400001, 39.95950206399999], [-124.276187386, 39.895119353999974], [-124.19987861999999, 39.846173780000015], [-124.09772355400003, 39.723210338], [-124.05155447800001, 39.61366978500001], [-124.047890053, 39.564628836], [-124.07871693599998, 39.46203453200002], [-124.08576322800002, 39.32541107399999], [-124.02032883700002, 39.13691288899997], [-123.97363178199998, 39.052354493999985], [-124.00256297200002, 38.948415196999974], [-123.95720365, 38.831645718999994], [-123.82257728299999, 38.69499986400001], [-123.65034642299997, 38.57061638800002], [-123.51962461800002, 38.42725423799999], [-123.34513437700002, 38.32018349499998], [-123.28992103899998, 38.207912323000016], [-123.21929021800003, 38.135943639000004], [-123.27395137000002, 38.03039470300001], [-123.26359518499999, 37.92988755099998], [-123.324427077, 37.87499420900002], [-123.35564825, 37.81001292100001], [-123.35693382900001, 37.73926908499999], [-123.32823029399998, 37.67357477500002], [-123.16669527200003, 37.539065558999994], [-123.04338402399998, 37.49555571899998], [-122.888394651, 37.51529701300001], [-122.824518722, 37.55213240699999], [-122.77668134499999, 37.60302465400002], [-122.7532046, 37.44631204699999], [-122.65971283900001, 37.31783226699997], [-122.67147192099998, 37.217987558000004], [-122.62236745899997, 37.089986967000016], [-122.515477428, 36.96621470399998], [-122.31061754500001, 36.82017339700002], [-122.23269353199998, 36.78178723000002], [-122.20130288299998, 36.67609259699998], [-122.22642327300002, 36.61446840100001], [-122.22622410700001, 36.55172108300002], [-122.11765065200001, 36.20521929099999], [-122.00445129799999, 36.099150796], [-121.85931203899997, 36.02147750500001], [-121.781953789, 35.91130325500001], [-121.71776605100001, 35.85714072000002], [-121.676325857, 35.77562798399998], [-121.55657920200002, 35.668570812999974], [-121.479102178, 35.53820014299998], [-121.418445222, 35.49446828499998], [-121.32963842999999, 35.46260587500001], [-121.142921537, 35.294816841], [-121.139325359, 35.202676903999986], [-121.07966654, 35.105929601000014], [-120.89953250000002, 34.98921765], [-120.91576346400001, 34.892243270999984], [-120.879403776, 34.79404857899999], [-120.86935444900001, 34.687150006000024], [-120.89380207699998, 34.59027821900003], [-120.88233970599998, 34.514145918], [-120.815848743, 34.424666274], [-120.69081644900001, 34.360349301999975], [-120.616898859, 34.28597192900003], [-120.699400448, 34.23633186699999], [-120.75061534100001, 34.16076285600002], [-120.75874367099999, 34.075115503999996], [-120.72407853599998, 33.995645196], [-120.580323856, 33.857844589000024], [-120.39249718600001, 33.81533821300002], [-120.28685354100003, 33.742163299000026], [-120.14050657899998, 33.69444630700002], [-120.04519685100001, 33.70226057100001], [-119.88183854099998, 33.75484317299998], [-119.68389540599998, 33.760896033999984], [-119.474298041, 33.80813281799999], [-119.33215972599999, 33.80801225699997], [-119.22836270200003, 33.84595630899997], [-119.16186151099998, 33.89730133799998], [-118.84499570899999, 33.80041915800001], [-118.76165705400001, 33.801630794000005], [-118.65964671199998, 33.830587974000025], [-118.66815574700001, 33.756960719000006], [-118.641918353, 33.67753680499999], [-118.74096134199999, 33.64530442900002], [-118.81444960599998, 33.57906798699997], [-118.88705130400001, 33.65046926299999], [-118.987828003, 33.686343334000014], [-119.09582848000002, 33.681561484999975], [-119.20469247099999, 33.635112542], [-119.25491015, 33.58396737999999], [-119.28293866000001, 33.521533972999976], [-119.288033192, 33.445888792999995], [-119.26858827799998, 33.38270488699999], [-119.34585595499999, 33.43291664499998], [-119.50908049499998, 33.48837841300002], [-119.61740901399997, 33.55219677399998], [-119.71218458599998, 33.56264374800003], [-119.804120055, 33.54124635199997], [-119.870709567, 33.49903849499998], [-119.917426536, 33.43730142499999], [-119.934678943, 33.36544448500001], [-119.92012942999997, 33.29344115800001], [-119.87573582800002, 33.23043739799999], [-119.68294668700003, 33.068512011999985], [-119.55777948100001, 33.024727774999974], [-119.44921140600002, 33.01481424899998], [-119.32715063, 33.04292721899998], [-119.22619266999999, 33.113239093000004], [-119.18418196900001, 33.20715565500001], [-119.20298187200001, 33.30944528200001], [-119.10317478500002, 33.26782161199998], [-118.98625852800001, 33.268637463999994], [-118.88557552999998, 33.307848130000025], [-118.81644607599998, 33.37843159900001], [-118.67708232000001, 33.227552230000015], [-118.770558139, 33.185414596999976], [-118.83344154100001, 33.11233440400002], [-118.851805249, 33.023516081000025], [-118.823447671, 32.932856964999985], [-118.660835034, 32.70213533100002], [-118.523860307, 32.615156571], [-118.39460223499998, 32.59981396699999], [-118.20852515799999, 32.65769922300001], [-118.14888630899998, 32.71093578699998], [-118.11655489700001, 32.77494478900002], [-118.11319504300002, 32.85136620499998], [-118.141920223, 32.920264648], [-118.338775145, 33.096453312999984], [-118.26144080300003, 33.10395211500003], [-118.18466453399998, 33.13357297599998], [-118.12237377999998, 33.17895060400002], [-118.08217727200002, 33.236120527000026], [-118.065465808, 33.302689723000015], [-118.07068866100002, 33.364781635999975], [-118.09946667700001, 33.43009341800001], [-118.15374338499998, 33.49758668200002], [-117.937788501, 33.37804222], [-117.86707868600001, 33.303056389999995], [-117.681772148, 33.195502223999995], [-117.55452669499999, 33.048576466999975], [-117.50557131, 32.935961987999974], [-117.51932746199998, 32.811841426], [-117.46446354300002, 32.589502751]], [[-125.022556684, 48.06080572399998], [-125.01753350199999, 48.04895807499997], [-125.02561045700003, 47.97244244799998], [-125.00276105699999, 47.91182159800002], [-124.89123150500001, 47.77265006599998], [-124.785830788, 47.690619131000005], [-124.76458893799997, 47.59659633199999], [-124.68231855900001, 47.519695402000025]], [[-124.68231855900001, 47.519695402000025], [-124.70008695199999, 47.46046228199998], [-124.69011243, 47.398289299], [-124.624742776, 47.30104713200001], [-124.49352430900001, 47.15598431000001], [-124.464396895, 47.03426027299997], [-124.46827231999998, 46.891739051], [-124.39364907800001, 46.78582775000001], [-124.346731062, 46.431138610999994], [-124.37561065199998, 46.29420867599998], [-124.37054321300002, 46.22137412400002], [-124.31215348699999, 46.127220561], [-124.23377549100002, 46.06988349400001], [-124.28337012700001, 46.01496485400003], [-124.30515350799999, 45.95073516000002], [-124.30032205999998, 45.898647822999976], [-124.27188477200002, 45.838107105999995], [-124.280897982, 45.73266069900001], [-124.23461986299998, 45.651572398999974], [-124.29436489300002, 45.34840865799998], [-124.26703576599999, 45.251857723], [-124.26618650900002, 45.16837118199999], [-124.29811007799998, 45.094260163], [-124.312440547, 44.932285431000025], [-124.34350889299998, 44.87317330000002], [-124.35832361400003, 44.78738728600001], [-124.357120065, 44.573444732999974], [-124.374227228, 44.50471919900002], [-124.36463375599999, 44.43186822400003], [-124.392766645, 44.31509104000003], [-124.40727799400003, 44.09645845699998], [-124.45365510099998, 43.799815808000005], [-124.54414542199999, 43.51072759499999], [-124.636537552, 43.43084953599998], [-124.67502656800002, 43.368430719], [-124.676590224, 43.23207696100002], [-124.72338555300001, 43.15512574899998], [-124.72957722199999, 43.043157054000005], [-124.85534754600002, 42.89334350799999], [-124.90687959500002, 42.782148114999984], [-124.89801105200002, 42.71629119400001], [-124.86065589399999, 42.65627767400002], [-124.79885249699998, 42.608405205999986], [-124.72109612399998, 42.57838746499999], [-124.76411651799998, 42.50718721099997], [-124.76659673099999, 42.427388098999984], [-124.703406401, 42.322875735000025], [-124.67979541300002, 42.19003722100001], [-124.636184103, 42.11631596400002], [-124.62230205399999, 42.04643716099997], [-124.57164463499998, 41.97381727200002]], [[-125.01505514600001, 48.49199736899999], [-125.04662191900002, 48.394877027999996], [-125.02121288699999, 48.307782540999995], [-125.06644371599998, 48.25291394499999], [-125.08406864199998, 48.18799916900002], [-125.06910056200002, 48.122644482], [-125.02255668100003, 48.06080571199999]], [[-124.72724530400001, 48.49344526599998], [-124.840526996, 48.50589699599999], [-125.01505514600001, 48.49199736899999]], [[-120.10620677200001, 34.233827647], [-120.19084615100002, 34.222348798999974], [-120.25396606300001, 34.266509348], [-120.046085645, 34.248578839000004], [-120.10620677200001, 34.233827647]]]}}, {"type": "Feature", "properties": {"Layer": "U.S. EEZ Outer Limit / Maritime Boundary", "Source": "https://nauticalcharts.noaa.gov/data/us-maritime-limits-and-boundaries.html", "Source feature count": 6, "Selection rule": "REGION=Pacific Coast and EEZ=1", "Caveat": "Includes EEZ outer-limit and international maritime-boundary segments in the NOAA dataset."}, "geometry": {"type": "MultiLineString", "coordinates": [[[-129.01465190099998, 46.386127183999974], [-128.88816720900002, 46.17158168399999], [-128.836879313, 45.840153997000016], [-128.73837328500002, 45.50867276600002], [-128.73256033400003, 45.255608970000026], [-128.76016443499998, 44.89621297000002], [-128.754268346, 44.544358252999984], [-128.75921943499998, 44.420200463000015], [-128.85377639, 44.17707469700002], [-128.92411521000002, 43.91903318200002], [-129.033589383, 43.646535218], [-129.106222123, 43.38534297199999], [-129.15580985600002, 43.05424666800002], [-129.15923568199997, 42.71033877799999], [-129.127995934, 42.438822318999996], [-129.068992504, 42.17590145999998], [-128.95677812600002, 41.85343583399998], [-128.81009998399998, 41.552586835], [-128.740462428, 41.22749947], [-128.79277293400003, 41.006676497], [-128.825982635, 40.77474388899998], [-128.82934283499998, 40.32504200599999], [-128.80002656599999, 40.092801717999976], [-128.74993478300001, 39.86267127999997], [-128.679511081, 39.635747708999986], [-128.58928279499997, 39.41310255000002], [-128.268568824, 38.830617768000025], [-128.11628966400002, 38.610862140999984], [-127.94322612500002, 38.39902285900001], [-127.84035281400003, 38.06985585299998], [-127.69156566100003, 37.74026765299999], [-127.46226938299998, 37.35895431900002], [-127.17912994900001, 37.00453534100001], [-127.02266281700003, 36.616354392999995], [-126.81512089900002, 36.25311192800001], [-126.60375870299998, 35.967109961999995], [-126.35994332899998, 35.699149104000014], [-126.100581911, 35.46355818699999], [-125.77485041599999, 35.214558934000024], [-125.58144061000002, 34.84966603100003], [-125.33719785, 34.50405063400001], [-125.05167043699998, 34.18485437999999], [-124.71936136400001, 33.88979338600001], [-124.508221317, 33.646310717000006], [-124.367809566, 33.20772304000002], [-124.258159326, 32.93953192800001], [-124.09611334099998, 32.63512657299998], [-123.900237635, 32.345671435999975], [-123.67263603599997, 32.07380770899999], [-123.34636034300001, 31.747985502999995], [-123.121617781, 31.562664548999976], [-122.86796022300001, 31.384232361999977], [-122.64804953599997, 31.156115914999987], [-122.33637425299997, 30.879495055000007], [-121.86707492699998, 30.542093580000028]], [[-117.46446354300002, 32.589502751], [-117.719066054, 32.61600686600002]], [[-117.719066054, 32.61600686600002], [-117.82616500500001, 32.62699299799999], [-118.60588100400003, 31.132857], [-120.24030669400003, 30.84795876300001], [-121.86707492699998, 30.542093580000028]], [[-125.344068827, 48.355498907000026], [-125.89804899699999, 48.184507001999975], [-126.68390299700002, 47.82061699899998], [-127.20086400399998, 47.61283800199999], [-127.69115699899999, 47.36644899999999], [-128.08863763300002, 47.14476715000001], [-128.86702700299998, 46.70117000099998], [-129.12873542300002, 46.52966435799999]], [[-129.12873542300002, 46.52966435799999], [-129.01465190099998, 46.386127183999974]], [[-125.01505514600001, 48.49199736899999], [-125.14164500200002, 48.452563999000006], [-125.344068827, 48.355498907000026]]]}}]}